IRIDIUM 111             
1 41926U 17003K   24160.41178125  .00000523  00000+0  17977-3 0  9998
2 41926  86.3982  37.0924 0001906  80.2037 279.9374 14.34220824387369
IRIDIUM 113             
1 42803U 17039A   24160.60105392  .00000062  00000+0  14974-4 0  9992
2 42803  86.3968 270.7721 0002042  94.7624 265.3805 14.34218190365326
IRIDIUM 120             
1 42805U 17039C   24160.38540689  .00000046  00000+0  94190-5 0  9992
2 42805  86.3954 270.7404 0002287  96.0817 264.0639 14.34217886365288
IRIDIUM 115             
1 42806U 17039D   24160.53713304  .00000826  00000+0  23948-3 0  9993
2 42806  86.4491 270.7002 0001934  92.8323 267.3099 14.43290144367729
IRIDIUM 118             
1 42807U 17039E   24160.46493993  .00000355  00000+0  11968-3 0  9991
2 42807  86.3951 302.3443 0002299  89.2447 270.9012 14.34219854364061
